{
  "norad_id": 41861,
  "name": "GSAT0213 (GALILEO 17)",
  "history": [
    {
      "epoch": "2026-03-26T20:16:12.674496",
      "apogee_km": 23239.080827822796,
      "perigee_km": 23205.13526680254,
      "latitude_deg": 52.24239206710849,
      "longitude_deg": 55.180749440100044,
      "semi_major_axis_km": 29600.245047312666,
      "eccentricity": 0.0005734,
      "inclination_deg": 55.4449,
      "raan_deg": 103.3658,
      "arg_perigee_deg": 297.2228,
      "mean_anomaly_deg": 62.7676,
      "mean_motion_rev_day": 1.70474648
    }
  ]
}